[{"OBJECT_NAME":"STARLINK-37006","OBJECT_ID":"2026-050W","EPOCH":"2026-04-01T16:27:34.416000","MEAN_MOTION":15.80953041,"ECCENTRICITY":0.0001369,"INCLINATION":53.1591,"RA_OF_ASC_NODE":166.4184,"ARG_OF_PERICENTER":69.2811,"MEAN_ANOMALY":290.8358,"EPHEMERIS_TYPE":0,"CLASSIFICATION_TYPE":"U","NORAD_CAT_ID":68187,"ELEMENT_SET_NO":999,"REV_AT_EPOCH":411,"BSTAR":0.0010284,"MEAN_MOTION_DOT":0.00208003,"MEAN_MOTION_DDOT":0},{"OBJECT_NAME":"STARLINK-36340","OBJECT_ID":"2026-050X","EPOCH":"2026-04-01T16:26:29.417280","MEAN_MOTION":15.80985729,"ECCENTRICITY":0.0001107,"INCLINATION":53.1588,"RA_OF_ASC_NODE":166.4137,"ARG_OF_PERICENTER":51.7394,"MEAN_ANOMALY":308.3729,"EPHEMERIS_TYPE":0,"CLASSIFICATION_TYPE":"U","NORAD_CAT_ID":68188,"ELEMENT_SET_NO":999,"REV_AT_EPOCH":401,"BSTAR":0.0013802,"MEAN_MOTION_DOT":0.0028226,"MEAN_MOTION_DDOT":0},{"OBJECT_NAME":"STARLINK-36305","OBJECT_ID":"2026-050Y","EPOCH":"2026-04-01T16:25:24.296736","MEAN_MOTION":15.81007983,"ECCENTRICITY":9.68e-5,"INCLINATION":53.1587,"RA_OF_ASC_NODE":166.4088,"ARG_OF_PERICENTER":74.2909,"MEAN_ANOMALY":285.822,"EPHEMERIS_TYPE":0,"CLASSIFICATION_TYPE":"U","NORAD_CAT_ID":68189,"ELEMENT_SET_NO":999,"REV_AT_EPOCH":401,"BSTAR":0.0014926,"MEAN_MOTION_DOT":0.0030649,"MEAN_MOTION_DDOT":0},{"OBJECT_NAME":"STARLINK-37071","OBJECT_ID":"2026-050Z","EPOCH":"2026-04-01T16:23:15.010368","MEAN_MOTION":15.80982488,"ECCENTRICITY":0.0001368,"INCLINATION":53.1587,"RA_OF_ASC_NODE":166.3986,"ARG_OF_PERICENTER":128.7159,"MEAN_ANOMALY":231.3986,"EPHEMERIS_TYPE":0,"CLASSIFICATION_TYPE":"U","NORAD_CAT_ID":68190,"ELEMENT_SET_NO":999,"REV_AT_EPOCH":411,"BSTAR":0.0013315,"MEAN_MOTION_DOT":0.00271897,"MEAN_MOTION_DDOT":0},{"OBJECT_NAME":"STARLINK-37091","OBJECT_ID":"2026-050AA","EPOCH":"2026-04-01T16:22:10.092000","MEAN_MOTION":15.80993175,"ECCENTRICITY":7.62e-5,"INCLINATION":53.1587,"RA_OF_ASC_NODE":166.393,"ARG_OF_PERICENTER":64.7696,"MEAN_ANOMALY":295.3405,"EPHEMERIS_TYPE":0,"CLASSIFICATION_TYPE":"U","NORAD_CAT_ID":68191,"ELEMENT_SET_NO":999,"REV_AT_EPOCH":411,"BSTAR":0.0014804,"MEAN_MOTION_DOT":0.0030368,"MEAN_MOTION_DDOT":0},{"OBJECT_NAME":"STARLINK-37098","OBJECT_ID":"2026-050AB","EPOCH":"2026-04-01T16:21:05.445792","MEAN_MOTION":15.80976286,"ECCENTRICITY":0.0001066,"INCLINATION":53.1585,"RA_OF_ASC_NODE":166.3883,"ARG_OF_PERICENTER":88.3429,"MEAN_ANOMALY":271.7716,"EPHEMERIS_TYPE":0,"CLASSIFICATION_TYPE":"U","NORAD_CAT_ID":68192,"ELEMENT_SET_NO":999,"REV_AT_EPOCH":411,"BSTAR":0.001319,"MEAN_MOTION_DOT":0.0026918,"MEAN_MOTION_DDOT":0},{"OBJECT_NAME":"STARLINK-37090","OBJECT_ID":"2026-050AC","EPOCH":"2026-04-01T16:18:55.672128","MEAN_MOTION":15.81010303,"ECCENTRICITY":9.0e-5,"INCLINATION":53.1584,"RA_OF_ASC_NODE":166.3773,"ARG_OF_PERICENTER":80.4569,"MEAN_ANOMALY":279.6555,"EPHEMERIS_TYPE":0,"CLASSIFICATION_TYPE":"U","NORAD_CAT_ID":68193,"ELEMENT_SET_NO":999,"REV_AT_EPOCH":411,"BSTAR":0.0016357,"MEAN_MOTION_DOT":0.00337199,"MEAN_MOTION_DDOT":0},{"OBJECT_NAME":"STARLINK-37093","OBJECT_ID":"2026-050AD","EPOCH":"2026-04-01T16:24:19.965888","MEAN_MOTION":15.80972196,"ECCENTRICITY":0.0001602,"INCLINATION":53.1589,"RA_OF_ASC_NODE":166.4028,"ARG_OF_PERICENTER":70.088,"MEAN_ANOMALY":290.0315,"EPHEMERIS_TYPE":0,"CLASSIFICATION_TYPE":"U","NORAD_CAT_ID":68194,"ELEMENT_SET_NO":999,"REV_AT_EPOCH":411,"BSTAR":0.0012566,"MEAN_MOTION_DOT":0.00255979,"MEAN_MOTION_DDOT":0},{"OBJECT_NAME":"STARLINK-37058","OBJECT_ID":"2026-050AE","EPOCH":"2026-04-01T16:20:00.620736","MEAN_MOTION":15.80945422,"ECCENTRICITY":9.66e-5,"INCLINATION":53.1588,"RA_OF_ASC_NODE":166.3827,"ARG_OF_PERICENTER":90.9071,"MEAN_ANOMALY":269.2062,"EPHEMERIS_TYPE":0,"CLASSIFICATION_TYPE":"U","NORAD_CAT_ID":68195,"ELEMENT_SET_NO":999,"REV_AT_EPOCH":255,"BSTAR":0.00091953,"MEAN_MOTION_DOT":0.00185351,"MEAN_MOTION_DDOT":0},{"OBJECT_NAME":"CZ-6A R/B","OBJECT_ID":"2026-051B","EPOCH":"2026-04-01T21:22:51.271680","MEAN_MOTION":14.56378203,"ECCENTRICITY":0.0187114,"INCLINATION":142.0311,"RA_OF_ASC_NODE":328.6337,"ARG_OF_PERICENTER":218.1356,"MEAN_ANOMALY":140.5997,"EPHEMERIS_TYPE":0,"CLASSIFICATION_TYPE":"U","NORAD_CAT_ID":68197,"ELEMENT_SET_NO":999,"REV_AT_EPOCH":254,"BSTAR":0.00014892,"MEAN_MOTION_DOT":1.146e-5,"MEAN_MOTION_DDOT":0},{"OBJECT_NAME":"2026-052A","OBJECT_ID":"2026-052A","EPOCH":"2026-04-01T20:26:52.831968","MEAN_MOTION":15.09993289,"ECCENTRICITY":0.0013387,"INCLINATION":97.5366,"RA_OF_ASC_NODE":167.8338,"ARG_OF_PERICENTER":203.5305,"MEAN_ANOMALY":156.5313,"EPHEMERIS_TYPE":0,"CLASSIFICATION_TYPE":"U","NORAD_CAT_ID":68198,"ELEMENT_SET_NO":999,"REV_AT_EPOCH":252,"BSTAR":0.00044518,"MEAN_MOTION_DOT":7.185e-5,"MEAN_MOTION_DDOT":0},{"OBJECT_NAME":"YUXING-3 06","OBJECT_ID":"2026-052B","EPOCH":"2026-04-01T17:13:33.586176","MEAN_MOTION":15.10142718,"ECCENTRICITY":0.0012372,"INCLINATION":97.5367,"RA_OF_ASC_NODE":167.7051,"ARG_OF_PERICENTER":205.306,"MEAN_ANOMALY":154.7565,"EPHEMERIS_TYPE":0,"CLASSIFICATION_TYPE":"U","NORAD_CAT_ID":68199,"ELEMENT_SET_NO":999,"REV_AT_EPOCH":250,"BSTAR":0.00030373,"MEAN_MOTION_DOT":4.899e-5,"MEAN_MOTION_DDOT":0},{"OBJECT_NAME":"2026-052C","OBJECT_ID":"2026-052C","EPOCH":"2026-04-01T20:22:20.269344","MEAN_MOTION":15.10262192,"ECCENTRICITY":0.0012126,"INCLINATION":97.5362,"RA_OF_ASC_NODE":167.8387,"ARG_OF_PERICENTER":207.362,"MEAN_ANOMALY":152.6972,"EPHEMERIS_TYPE":0,"CLASSIFICATION_TYPE":"U","NORAD_CAT_ID":68200,"ELEMENT_SET_NO":999,"REV_AT_EPOCH":251,"BSTAR":0.0002832,"MEAN_MOTION_DOT":4.578e-5,"MEAN_MOTION_DDOT":0},{"OBJECT_NAME":"2026-052D","OBJECT_ID":"2026-052D","EPOCH":"2026-04-01T20:19:27.808032","MEAN_MOTION":15.10489992,"ECCENTRICITY":0.0011354,"INCLINATION":97.536,"RA_OF_ASC_NODE":167.8383,"ARG_OF_PERICENTER":203.9057,"MEAN_ANOMALY":156.1646,"EPHEMERIS_TYPE":0,"CLASSIFICATION_TYPE":"U","NORAD_CAT_ID":68201,"ELEMENT_SET_NO":999,"REV_AT_EPOCH":252,"BSTAR":0.00038471,"MEAN_MOTION_DOT":6.282e-5,"MEAN_MOTION_DDOT":0},{"OBJECT_NAME":"2026-052E","OBJECT_ID":"2026-052E","EPOCH":"2026-04-01T20:19:26.126688","MEAN_MOTION":15.10490385,"ECCENTRICITY":0.001114,"INCLINATION":97.5362,"RA_OF_ASC_NODE":167.8406,"ARG_OF_PERICENTER":208.0775,"MEAN_ANOMALY":151.9855,"EPHEMERIS_TYPE":0,"CLASSIFICATION_TYPE":"U","NORAD_CAT_ID":68202,"ELEMENT_SET_NO":999,"REV_AT_EPOCH":252,"BSTAR":0.0004198,"MEAN_MOTION_DOT":6.861e-5,"MEAN_MOTION_DDOT":0},{"OBJECT_NAME":"2026-052F","OBJECT_ID":"2026-052F","EPOCH":"2026-04-01T20:15:25.324704","MEAN_MOTION":15.10747075,"ECCENTRICITY":0.0010424,"INCLINATION":97.5354,"RA_OF_ASC_NODE":167.847,"ARG_OF_PERICENTER":200.4623,"MEAN_ANOMALY":159.6191,"EPHEMERIS_TYPE":0,"CLASSIFICATION_TYPE":"U","NORAD_CAT_ID":68203,"ELEMENT_SET_NO":999,"REV_AT_EPOCH":252,"BSTAR":0.00044366,"MEAN_MOTION_DOT":7.305e-5,"MEAN_MOTION_DDOT":0}]
